[{"OBJECT_NAME":"YAOGAN-40 02C","OBJECT_ID":"2025-096C","EPOCH":"2026-03-09T23:00:48.049344","MEAN_MOTION":14.12429028,"ECCENTRICITY":0.00019858,"INCLINATION":85.9918,"RA_OF_ASC_NODE":231.6606,"ARG_OF_PERICENTER":86.0596,"MEAN_ANOMALY":274.0814,"EPHEMERIS_TYPE":0,"CLASSIFICATION_TYPE":"U","NORAD_CAT_ID":63920,"ELEMENT_SET_NO":999,"REV_AT_EPOCH":6140,"BSTAR":0.00013239908,"MEAN_MOTION_DOT":2.63e-6,"MEAN_MOTION_DDOT":0},{"OBJECT_NAME":"NOAA 18","OBJECT_ID":"2005-018A","EPOCH":"2026-03-09T21:29:47.155488","MEAN_MOTION":14.13710931,"ECCENTRICITY":0.00152794,"INCLINATION":98.8155,"RA_OF_ASC_NODE":150.0001,"ARG_OF_PERICENTER":74.9302,"MEAN_ANOMALY":285.356,"EPHEMERIS_TYPE":0,"CLASSIFICATION_TYPE":"U","NORAD_CAT_ID":28654,"ELEMENT_SET_NO":999,"REV_AT_EPOCH":7228,"BSTAR":5.712695e-5,"MEAN_MOTION_DOT":6.4e-7,"MEAN_MOTION_DDOT":0}]
